NORAD_CAT_ID,OBJECT_NAME,OBJECT_TYPE,EPOCH,MEAN_MOTION,ECCENTRICITY,INCLINATION,RA_OF_ASC_NODE,ARG_OF_PERICENTER,MEAN_ANOMALY,BSTAR,MEAN_MOTION_DOT,MEAN_MOTION_DDOT,TLE_LINE0,TLE_LINE1,TLE_LINE2,SEMIMAJOR_AXIS,PERIOD,APOGEE,PERIGEE,DECAYED
49177.0,STARLINK-3103,PAYLOAD,2024-05-06 10:52:29,14.98331293,0.0003119,69.9984,149.4122,269.361,90.7192,0.00014377,1.623e-05,0.0,0 STARLINK-3103,1 49177U 21082AZ  24127.45311566  .00001623  00000-0  14377-3 0  9995,2 49177  69.9984 149.4122 0003119 269.3610  90.7192 14.98331293147462,6950.189,96.107,574.222,569.886,0.0
49177.0,STARLINK-3103,PAYLOAD,2024-05-06 18:53:09,14.98332929,0.0003124,69.9985,148.5705,269.4237,90.6564,0.00013608,1.531e-05,0.0,0 STARLINK-3103,1 49177U 21082AZ  24127.78691461  .00001531  00000-0  13608-3 0  9990,2 49177  69.9985 148.5705 0003124 269.4237  90.6564 14.98332929147517,6950.184,96.107,574.22,569.878,0.0
49177.0,STARLINK-3103,PAYLOAD,2024-05-07 04:29:57,14.98335673,0.0003124,69.9985,147.5607,269.3519,90.7282,0.00013757,1.549e-05,0.0,0 STARLINK-3103,1 49177U 21082AZ  24128.18747288  .00001549  00000-0  13757-3 0  9998,2 49177  69.9985 147.5607 0003124 269.3519  90.7282 14.98335673147572,6950.175,96.107,574.212,569.869,0.0
49177.0,STARLINK-3103,PAYLOAD,2024-05-07 10:54:29,14.98337256,0.0003122,69.9985,146.8875,269.5011,90.5791,0.00013754,1.549e-05,0.0,0 STARLINK-3103,1 49177U 21082AZ  24128.45451138  .00001549  00000-0  13754-3 0  9991,2 49177  69.9985 146.8875 0003122 269.5011  90.5791 14.98337256147615,6950.17,96.107,574.205,569.866,0.0
49177.0,STARLINK-3103,PAYLOAD,2024-05-08 04:31:58,14.98331348,0.0003121,69.9984,145.0361,269.6611,90.419,1.2139e-05,5.2e-07,0.0,0 STARLINK-3103,1 49177U 21082AZ  24129.18887587  .00000052  00000-0  12139-4 0  9998,2 49177  69.9984 145.0361 0003121 269.6611  90.4190 14.98331348147721,6950.189,96.107,574.223,569.885,0.0
49177.0,STARLINK-3103,PAYLOAD,2024-05-08 10:56:30,14.98333107,0.000313,69.9985,144.3631,270.1458,89.9343,2.1525e-05,1.64e-06,0.0,0 STARLINK-3103,1 49177U 21082AZ  24129.45591391  .00000164  00000-0  21525-4 0  9996,2 49177  69.9985 144.3631 0003130 270.1458  89.9343 14.98333107147762,6950.183,96.107,574.224,569.873,0.0
49177.0,STARLINK-3103,PAYLOAD,2024-05-09 04:33:59,14.98335183,0.0003109,69.9986,142.5114,270.1298,89.9505,1.8726e-05,1.3e-06,0.0,0 STARLINK-3103,1 49177U 21082AZ  24130.19027106  .00000130  00000-0  18726-4 0  9999,2 49177  69.9986 142.5114 0003109 270.1298  89.9505 14.98335183147875,6950.177,96.107,574.203,569.881,0.0
49177.0,STARLINK-3103,PAYLOAD,2024-05-09 10:58:31,14.98334737,0.0003096,69.9987,141.8382,270.1169,89.9636,1.6753e-05,1.07e-06,0.0,0 STARLINK-3103,1 49177U 21082AZ  24130.45731057  .00000107  00000-0  16753-4 0  9997,2 49177  69.9987 141.8382 0003096 270.1169  89.9636 14.98334737147911,6950.178,96.107,574.195,569.891,0.0
49177.0,STARLINK-3103,PAYLOAD,2024-05-10 04:36:00,14.9833098,0.0003135,69.9985,139.9864,270.4297,89.6503,9.6802e-05,1.062e-05,0.0,0 STARLINK-3103,1 49177U 21082AZ  24131.19167119  .00001062  00000-0  96802-4 0  9995,2 49177  69.9985 139.9864 0003135 270.4297  89.6503 14.98330980148020,6950.19,96.107,574.234,569.876,0.0
49177.0,STARLINK-3103,PAYLOAD,2024-05-10 11:00:30,14.98405641,0.0003514,69.9986,139.3127,268.3728,91.7028,-0.0012324,-0.00014796,0.0,0 STARLINK-3103,1 49177U 21082AZ  24131.45868602 -.00014796  00000-0 -12324-2 0  9994,2 49177  69.9986 139.3127 0003514 268.3728  91.7028 14.98405641148060,6949.959,96.102,574.266,569.382,0.0
49177.0,STARLINK-3103,PAYLOAD,2024-05-10 17:25:04,14.98335425,0.0003105,69.9986,138.6391,271.0887,88.9916,4.2223e-05,4.11e-06,0.0,0 STARLINK-3103,1 49177U 21082AZ  24131.72574930  .00000411  00000-0  42223-4 0  9992,2 49177  69.9986 138.6391 0003105 271.0887  88.9916 14.98335425148109,6950.176,96.107,574.199,569.883,0.0
49177.0,STARLINK-3103,PAYLOAD,2024-05-11 09:26:24,14.98351369,0.000281,69.9991,136.957,266.3826,93.7012,0.00030857,3.593e-05,0.0,0 STARLINK-3103,1 49177U 21082AZ  24132.39333948  .00003593  00000-0  30857-3 0  9991,2 49177  69.9991 136.9570 0002810 266.3826  93.7012 14.98351369148204,6950.127,96.106,573.945,570.039,0.0
49177.0,STARLINK-3103,PAYLOAD,2024-05-11 17:27:05,14.98336276,0.0002104,70.0009,136.114,284.943,75.1496,0.00014505,1.638e-05,0.0,0 STARLINK-3103,1 49177U 21082AZ  24132.72714790  .00001638  00000-0  14505-3 0  9996,2 49177  70.0009 136.1140 0002104 284.9430  75.1496 14.98336276148250,6950.173,96.107,573.501,570.576,0.0
49177.0,STARLINK-3103,PAYLOAD,2024-05-12 09:28:26,14.98326947,0.0002937,70.0,134.4316,271.7177,88.3645,-5.0324e-05,-6.93e-06,0.0,0 STARLINK-3103,1 49177U 21082AZ  24133.39475002 -.00000693  00000-0 -50324-4 0  9992,2 49177  70.0000 134.4316 0002937 271.7177  88.3645 14.98326947148350,6950.202,96.107,574.109,570.026,0.0
49177.0,STARLINK-3103,PAYLOAD,2024-05-12 17:29:07,14.98321439,0.000269,70.0011,133.5896,274.5798,85.5054,-0.0001454,-1.827e-05,0.0,0 STARLINK-3103,1 49177U 21082AZ  24133.72855485 -.00001827  00000-0 -14540-3 0  9995,2 49177  70.0011 133.5896 0002690 274.5798  85.5054 14.98321439148401,6950.219,96.108,573.954,570.215,0.0
49177.0,STARLINK-3103,PAYLOAD,2024-05-13 04:42:03,14.9831945,0.0002932,70.0,132.4118,272.2178,87.8645,-0.00018424,-2.29e-05,0.0,0 STARLINK-3103,1 49177U 21082AZ  24134.19587746 -.00002290  00000-0 -18424-3 0  9999,2 49177  70.0000 132.4118 0002932 272.2178  87.8645 14.98319450148478,6950.226,96.108,574.128,570.053,0.0
49177.0,STARLINK-3103,PAYLOAD,2024-05-13 09:30:28,14.98322001,0.0002912,69.9987,131.9065,267.7174,92.3652,-0.00011622,-1.479e-05,0.0,0 STARLINK-3103,1 49177U 21082AZ  24134.39616230 -.00001479  00000-0 -11622-3 0  9993,2 49177  69.9987 131.9065 0002912 267.7174  92.3652 14.98322001148506,6950.218,96.108,574.107,570.059,0.0
49177.0,STARLINK-3103,PAYLOAD,2024-05-13 17:31:08,14.98326072,0.0002955,69.9986,131.0646,271.0787,89.0034,-0.00010924,-1.396e-05,0.0,0 STARLINK-3103,1 49177U 21082AZ  24134.72996084 -.00001396  00000-0 -10924-3 0  9990,2 49177  69.9986 131.0646 0002955 271.0787  89.0034 14.98326072148550,6950.205,96.107,574.124,570.016,0.0
49177.0,STARLINK-3103,PAYLOAD,2024-05-14 04:44:05,14.9831834,0.000307,69.9984,129.8862,271.8352,88.2455,9.7283e-05,1.068e-05,0.0,0 STARLINK-3103,1 49177U 21082AZ  24135.19728470  .00001068  00000-0  97283-4 0  9992,2 49177  69.9984 129.8862 0003070 271.8352  88.2455 14.98318340148623,6950.229,96.108,574.228,569.96,0.0
49177.0,STARLINK-3103,PAYLOAD,2024-05-14 09:32:29,14.98320539,0.0003037,69.9984,129.3808,271.0702,89.0109,0.00010147,1.118e-05,0.0,0 STARLINK-3103,1 49177U 21082AZ  24135.39756457  .00001118  00000-0  10147-3 0  9999,2 49177  69.9984 129.3808 0003037 271.0702  89.0109 14.98320539148653,6950.222,96.108,574.198,569.976,0.0
49177.0,STARLINK-3103,PAYLOAD,2024-05-15 04:46:06,14.98325549,0.0003119,69.9983,127.3611,270.8712,89.209,0.00023849,2.753e-05,0.0,0 STARLINK-3103,1 49177U 21082AZ  24136.19868493  .00002753  00000-0  23849-3 0  9991,2 49177  69.9983 127.3611 0003119 270.8712  89.2090 14.98325549148771,6950.207,96.107,574.239,569.904,0.0
49177.0,STARLINK-3103,PAYLOAD,2024-05-15 09:34:30,14.98330338,0.0003116,69.9983,126.8562,270.6744,89.4058,0.00027871,3.234e-05,0.0,0 STARLINK-3103,1 49177U 21082AZ  24136.39896315  .00003234  00000-0  27871-3 0  9991,2 49177  69.9983 126.8562 0003116 270.6744  89.4058 14.98330338148802,6950.192,96.107,574.223,569.891,0.0
49177.0,STARLINK-3103,PAYLOAD,2024-05-15 22:23:34,14.98338467,0.0003127,69.9982,125.509,268.7911,91.289,0.00028271,3.283e-05,0.0,0 STARLINK-3103,1 49177U 21082AZ  24136.93303780  .00003283  00000-0  28271-3 0  9999,2 49177  69.9982 125.5090 0003127 268.7911  91.2890 14.98338467148883,6950.167,96.106,574.205,569.858,0.0
49177.0,STARLINK-3103,PAYLOAD,2024-05-16 04:48:06,14.9834429,0.000316,69.9993,124.8361,269.7238,90.3559,0.00038201,4.47e-05,0.0,0 STARLINK-3103,1 49177U 21082AZ  24137.20007645  .00004470  00000-0  38201-3 0  9994,2 49177  69.9993 124.8361 0003160 269.7238  90.3559 14.98344290148926,6950.149,96.106,574.21,569.817,0.0
49177.0,STARLINK-3103,PAYLOAD,2024-05-16 09:36:30,14.98344861,0.0003254,69.9992,124.3316,269.2288,90.8498,0.00034732,4.055e-05,0.0,0 STARLINK-3103,1 49177U 21082AZ  24137.40035535  .00004055  00000-0  34732-3 0  9999,2 49177  69.9992 124.3316 0003254 269.2288  90.8498 14.98344861148958,6950.147,96.106,574.274,569.75,0.0
49177.0,STARLINK-3103,PAYLOAD,2024-05-16 22:25:34,14.98346911,0.0003283,69.9994,122.9846,271.8038,88.2745,0.00022268,2.566e-05,0.0,0 STARLINK-3103,1 49177U 21082AZ  24137.93442994  .00002566  00000-0  22268-3 0  9994,2 49177  69.9994 122.9846 0003283 271.8038  88.2745 14.98346911149030,6950.141,96.106,574.287,569.724,0.0
49177.0,STARLINK-3103,PAYLOAD,2024-05-17 04:50:06,14.98346162,0.0003198,69.9993,122.3116,270.5265,89.5528,0.0001951,2.237e-05,0.0,0 STARLINK-3103,1 49177U 21082AZ  24138.20146814  .00002237  00000-0  19510-3 0  9998,2 49177  69.9993 122.3116 0003198 270.5265  89.5528 14.98346162149071,6950.143,96.106,574.231,569.785,0.0
49177.0,STARLINK-3103,PAYLOAD,2024-05-17 08:02:22,14.98349588,0.0003131,69.9995,121.9748,271.7656,88.3145,0.00025293,2.928e-05,0.0,0 STARLINK-3103,1 49177U 21082AZ  24138.33498520  .00002928  00000-0  25293-3 0  9998,2 49177  69.9995 121.9748 0003131 271.7656  88.3145 14.98349588149092,6950.132,96.106,574.173,569.821,0.0
49177.0,STARLINK-3103,PAYLOAD,2024-05-17 22:27:35,14.98336667,0.0002744,70.0002,120.4604,267.4283,92.6562,-1.5855e-05,-2.82e-06,0.0,0 STARLINK-3103,1 49177U 21082AZ  24138.93582732 -.00000282  00000-0 -15855-4 0  9990,2 49177  70.0002 120.4604 0002744 267.4283  92.6562 14.98336667149181,6950.172,96.107,573.944,570.13,0.0
49177.0,STARLINK-3103,PAYLOAD,2024-05-18 04:52:07,14.98337141,0.0002708,69.9993,119.7874,265.9733,94.1117,2.6577e-05,2.24e-06,0.0,0 STARLINK-3103,1 49177U 21082AZ  24139.20286790  .00000224  00000-0  26577-4 0  9993,2 49177  69.9993 119.7874 0002708 265.9733  94.1117 14.98337141149226,6950.171,96.107,573.918,570.154,0.0
